{
  "type" : "FeatureCollection",
  "features" : [{"type":"Feature","id":1,"geometry":{"type":"Polygon","coordinates":[[[-97.735943448767998,30.250547222063261],[-97.735242456736188,30.247483022337089],[-97.734965416134003,30.245291012348179],[-97.73595376998307,30.242733395393035],[-97.742393209095354,30.231808843725684],[-97.747453670646721,30.22332479869613],[-97.751409159297452,30.216264755707147],[-97.747147244326243,30.21645166367982],[-97.739590741783175,30.215928158414627],[-97.729699280560638,30.214438497549196],[-97.720672058209644,30.21337155945357],[-97.712427758382105,30.212273753453886],[-97.710201755367777,30.212368055374242],[-97.706932600472754,30.213103479009245],[-97.698749304731507,30.215737860666867],[-97.690424446220959,30.218783248884204],[-97.686380502739937,30.220624422585608],[-97.684068315987105,30.223017784822357],[-97.68284119621228,30.225397562916211],[-97.682708552782614,30.229189277068883],[-97.683859332672128,30.232703623143422],[-97.68489111562603,30.234670600610151],[-97.686557800610075,30.237030309539431],[-97.689042659841505,30.24067839520443],[-97.690372562912401,30.243276361152674],[-97.690791394926023,30.245321879026772],[-97.692264643316577,30.245354068116441],[-97.69512611048377,30.245799288055107],[-97.696346478982264,30.245068937778999],[-97.698107127655234,30.245256046625052],[-97.699375325478186,30.246350624707777],[-97.699694050001526,30.24788442119165],[-97.700813708380636,30.249456865457663],[-97.702533493229268,30.250060989932795],[-97.704631394983664,30.250344030682054],[-97.705971474581332,30.25000129047649],[-97.707354927794213,30.250447502825835],[-97.710006450855133,30.250612077525883],[-97.712948779922158,30.250315525807583],[-97.715584220094783,30.249728008270008],[-97.718773504570976,30.248381318209674],[-97.722580889775244,30.246557234401951],[-97.725976194805455,30.246516914205408],[-97.731208162103528,30.248692289624206],[-97.735943448767998,30.250547222063261]]]},"properties":{"OBJECTID":1,"Shape_Length":60928.199117855736,"Shape_Area":214599213.9288196,"NAME":"Zone1"}},{"type":"Feature","id":2,"geometry":{"type":"Polygon","coordinates":[[[-97.735943448767998,30.250547222063261],[-97.738265039014394,30.251826762341128],[-97.740027514399415,30.253316953918667],[-97.741036063524206,30.255017506296028],[-97.741845676168623,30.257054416935834],[-97.742598471753453,30.259187424817853],[-97.743638536512066,30.260598340564137],[-97.746485908605123,30.262146870560613],[-97.749810006963756,30.263409856883243],[-97.752857985783621,30.264501093435292],[-97.756297103890702,30.265475077474171],[-97.75842805706138,30.266461081431189],[-97.761278176287433,30.267816046785942],[-97.763465178422265,30.26877832577436],[-97.765876031770929,30.269645985265566],[-97.767924556216741,30.270558605375331],[-97.769443470551295,30.271538832676995],[-97.771782121213676,30.273782767570516],[-97.77291607362298,30.272077836003074],[-97.774522508496247,30.270425510593636],[-97.77626104678852,30.269354172590084],[-97.777889105825551,30.268209334739854],[-97.781278744488631,30.266379820612453],[-97.78438361717123,30.265079144068249],[-97.787628126277426,30.263731334301315],[-97.789703221494676,30.262421264047511],[-97.795556700136416,30.259308931639673],[-97.798157272691796,30.257913247177644],[-97.802419597249965,30.256051285381893],[-97.804948457543261,30.254252984426401],[-97.806593846121629,30.25003232438479],[-97.807266004397547,30.247148805597767],[-97.807740915035893,30.245530155228781],[-97.809172615902924,30.243959545172455],[-97.811006849843295,30.24274376294272],[-97.817614761889999,30.239585902958545],[-97.822500071790927,30.237525910512794],[-97.824080182262691,30.236395550175533],[-97.825037981227297,30.235182434048291],[-97.823687679589355,30.234923260095961],[-97.820623433331974,30.233520369398541],[-97.817264861096746,30.232934294705235],[-97.813679490711621,30.233474844913733],[-97.810901081614986,30.23352765160584],[-97.809499962726363,30.233051421404067],[-97.807072197560188,30.232055849350843],[-97.804547088773418,30.231770609681199],[-97.802208173846168,30.232306451617276],[-97.799012064613819,30.233051076692682],[-97.796514500247426,30.233446249122647],[-97.794809123186909,30.233106302388737],[-97.793896981910748,30.232695164026342],[-97.787811921181472,30.22969312979739],[-97.783297485042681,30.227985444794832],[-97.777210650086474,30.227675195280085],[-97.772509796196118,30.227694278170308],[-97.769938223792082,30.226851337644039],[-97.766296479189307,30.224699751562198],[-97.762431174041851,30.222063179092235],[-97.75652395131867,30.219151799466101],[-97.751409159297452,30.216264755707147],[-97.747453670646721,30.22332479869613],[-97.742393209095354,30.231808843725684],[-97.73595376998307,30.242733395393035],[-97.734965416134003,30.245291012348179],[-97.735242456736188,30.247483022337089],[-97.735943448767998,30.250547222063261]]]},"properties":{"OBJECTID":2,"Shape_Length":76608.83099536816,"Shape_Area":304126077.01000071,"NAME":"Zone2"}},{"type":"Feature","id":3,"geometry":{"type":"Polygon","coordinates":[[[-97.771782121213676,30.273782767570516],[-97.769443470551295,30.271538832676995],[-97.767924556216741,30.270558605375331],[-97.765876031770929,30.269645985265566],[-97.763465178422265,30.26877832577436],[-97.761278176287433,30.267816046785942],[-97.75842805706138,30.266461081431189],[-97.756297103890702,30.265475077474171],[-97.752857985783621,30.264501093435292],[-97.749810006963756,30.263409856883243],[-97.746485908605123,30.262146870560613],[-97.743638536512066,30.260598340564137],[-97.742598471753453,30.259187424817853],[-97.741845676168623,30.257054416935834],[-97.741036063524206,30.255017506296028],[-97.740027514399415,30.253316953918667],[-97.738265039014394,30.251826762341128],[-97.735943448767998,30.250547222063261],[-97.736124365928973,30.251661740753836],[-97.736653500079086,30.2538651673574],[-97.737069550961692,30.256212481933659],[-97.737156815400454,30.258146010074448],[-97.736863527652616,30.259351203963238],[-97.736024379823689,30.261928329635058],[-97.734638695155738,30.265925684226424],[-97.733051265509971,30.269771640424878],[-97.731559721730449,30.274287368819987],[-97.729585906585569,30.279100510219674],[-97.727053644453349,30.283342123155403],[-97.719643551573327,30.294841949245779],[-97.72315691109695,30.296557488068892],[-97.724175783648775,30.296240591767564],[-97.724722450424181,30.296295242111569],[-97.727942097610523,30.297800072492272],[-97.729664801628957,30.298647527284547],[-97.73048055558148,30.299070817133575],[-97.733972304224721,30.30071659579631],[-97.738007796820028,30.302664233934468],[-97.738890312683054,30.303226629388529],[-97.741033013665557,30.304246084405793],[-97.743560884024845,30.305476895439856],[-97.746147054098643,30.306609248414976],[-97.748260450341817,30.307242397744648],[-97.748943904684666,30.307308114365039],[-97.749869873102412,30.307128696923982],[-97.750553084052413,30.307214194370342],[-97.751358077942768,30.307597673459675],[-97.752038251160641,30.30793051613227],[-97.753539339428343,30.308280843748872],[-97.755439189462308,30.308664523524758],[-97.757498941384,30.309029860147593],[-97.758301201102327,30.304980205430869],[-97.75845934136494,30.303240097635101],[-97.758351080724765,30.300903818423066],[-97.758279354344296,30.299310018646178],[-97.75856605550095,30.297313813688412],[-97.759211522544717,30.29488551788042],[-97.759998008410847,30.292112177717541],[-97.760804882100899,30.290467083492803],[-97.761966489172352,30.288716394384142],[-97.764402627145643,30.285295180687164],[-97.767503458612666,30.280024932924071],[-97.769855103376088,30.276615904457049],[-97.771782121213676,30.273782767570516]]]},"properties":{"OBJECTID":3,"Shape_Length":59211.382064361875,"Shape_Area":171633822.11726776,"NAME":"Zone3"}},{"type":"Feature","id":4,"geometry":{"type":"Polygon","coordinates":[[[-97.690791394926023,30.245321879026772],[-97.690923849048133,30.247134614908429],[-97.691248696938516,30.249565275920293],[-97.692074581408491,30.251205444215351],[-97.692460653890464,30.253089344842845],[-97.692978651472075,30.25629248300562],[-97.693514895007738,30.25891071951467],[-97.694410900275784,30.261865792197376],[-97.695765392544956,30.266460521653077],[-97.697415716956385,30.271998155426875],[-97.697996390951587,30.273834425797961],[-97.69845285105896,30.274689843505914],[-97.69920634046187,30.275498650412743],[-97.700050277508794,30.276367697478477],[-97.700486248298802,30.277044792215253],[-97.702107064143831,30.279573851261379],[-97.703426221675059,30.281625004795437],[-97.704811940544033,30.283825214377433],[-97.705885818167715,30.285448479389469],[-97.706565116610378,30.286721610249195],[-97.707128657347369,30.288132161272873],[-97.707364792843904,30.290182767758157],[-97.707627394371755,30.291946659965799],[-97.707934189279854,30.294789962110951],[-97.708139316802445,30.295874873852533],[-97.708454713728131,30.29689751244106],[-97.708918398822746,30.297737912474638],[-97.709536945648637,30.298453133588367],[-97.71032430777592,30.299093970680481],[-97.711302216367471,30.299673296061574],[-97.713187981877212,30.300603265937159],[-97.714912594959117,30.301582337316717],[-97.715314767639413,30.301811663393547],[-97.719643551573327,30.294841949245779],[-97.727053644453349,30.283342123155403],[-97.729585906585569,30.279100510219674],[-97.731559721730449,30.274287368819987],[-97.733051265509971,30.269771640424878],[-97.734638695155738,30.265925684226424],[-97.736024379823689,30.261928329635058],[-97.736863527652616,30.259351203963238],[-97.737156815400454,30.258146010074448],[-97.737069550961692,30.256212481933659],[-97.736653500079086,30.2538651673574],[-97.736124365928973,30.251661740753836],[-97.735943448767998,30.250547222063261],[-97.731208162103528,30.248692289624206],[-97.725976194805455,30.246516914205408],[-97.722580889775244,30.246557234401951],[-97.718773504570976,30.248381318209674],[-97.715584220094783,30.249728008270008],[-97.712948779922158,30.250315525807583],[-97.710006450855133,30.250612077525883],[-97.707354927794213,30.250447502825835],[-97.705971474581332,30.25000129047649],[-97.704631394983664,30.250344030682054],[-97.702533493229268,30.250060989932795],[-97.700813708380636,30.249456865457663],[-97.699694050001526,30.24788442119165],[-97.699375325478186,30.246350624707777],[-97.698107127655234,30.245256046625052],[-97.696346478982264,30.245068937778999],[-97.69512611048377,30.245799288055107],[-97.692264643316577,30.245354068116441],[-97.690791394926023,30.245321879026772]]]},"properties":{"OBJECTID":4,"Shape_Length":58952.423597715177,"Shape_Area":178212225.29597092,"NAME":"Zone4"}},{"type":"Feature","id":5,"geometry":{"type":"Polygon","coordinates":[[[-97.715314767639413,30.301811663393547],[-97.714912594959117,30.301582337316717],[-97.713187981877212,30.300603265937159],[-97.711302216367471,30.299673296061574],[-97.71032430777592,30.299093970680481],[-97.709536945648637,30.298453133588367],[-97.708918398822746,30.297737912474638],[-97.708454713728131,30.29689751244106],[-97.708139316802445,30.295874873852533],[-97.707934189279854,30.294789962110951],[-97.707627394371755,30.291946659965799],[-97.707364792843904,30.290182767758157],[-97.707128657347369,30.288132161272873],[-97.706565116610378,30.286721610249195],[-97.705885818167715,30.285448479389469],[-97.704811940544033,30.283825214377433],[-97.703426221675059,30.281625004795437],[-97.702107064143831,30.279573851261379],[-97.700486248298802,30.277044792215253],[-97.700050277508794,30.276367697478477],[-97.69920634046187,30.275498650412743],[-97.69845285105896,30.274689843505914],[-97.697996390951587,30.273834425797961],[-97.697415716956385,30.271998155426875],[-97.695765392544956,30.266460521653077],[-97.694410900275784,30.261865792197376],[-97.693514895007738,30.25891071951467],[-97.692978651472075,30.25629248300562],[-97.692460653890464,30.253089344842845],[-97.692074581408491,30.251205444215351],[-97.691248696938516,30.249565275920293],[-97.690923849048133,30.247134614908429],[-97.690251467679403,30.248787180234324],[-97.689060898548419,30.2498780744092],[-97.68727865722596,30.25050923267079],[-97.684153660767493,30.250997554471187],[-97.681694949517706,30.251946286802191],[-97.679867903822881,30.25314435896636],[-97.67799312520583,30.255136368034226],[-97.67609994278321,30.257907398679368],[-97.673296016496167,30.262566333430346],[-97.671179887263904,30.265940032841339],[-97.6703409543329,30.267603698551287],[-97.669461192866379,30.27015359141086],[-97.668790974686033,30.272300226802788],[-97.667988709632695,30.275610843147167],[-97.667513064049146,30.27849402955011],[-97.666262956884623,30.282560166913939],[-97.665405154462434,30.285642213173904],[-97.664323304648036,30.289941144468397],[-97.662083382681772,30.297241512945927],[-97.660830214489252,30.302335073058167],[-97.660560896983398,30.305459326120904],[-97.660975751457173,30.308590373170073],[-97.662422016876221,30.313077414642343],[-97.663060868754556,30.316527314781556],[-97.664539637630185,30.31856061064477],[-97.667108101080544,30.32100047813779],[-97.670137549172068,30.323088612298474],[-97.6734274768327,30.325615689332754],[-97.675874373834347,30.327498988176714],[-97.678955488192372,30.329152032130345],[-97.682627229451199,30.331008679630425],[-97.68571368779358,30.332265809202895],[-97.691883770882811,30.33501730778471],[-97.697780474739403,30.337822583696969],[-97.70009079562081,30.338892884248548],[-97.702647660539071,30.335398380643689],[-97.704886666529532,30.331580581199209],[-97.705597272844983,30.329529208249589],[-97.70642382041656,30.325539481884327],[-97.706797264157544,30.322065840580045],[-97.707217131440174,30.319913626706185],[-97.707572154788906,30.316982595332366],[-97.708128140988379,30.314410157598523],[-97.708810139590909,30.312211807032512],[-97.710435132731462,30.309325342886275],[-97.712969958051843,30.305409951298579],[-97.715314767639413,30.301811663393547]]]},"properties":{"OBJECTID":5,"Shape_Length":79681.198971575432,"Shape_Area":339377299.68850815,"NAME":"Zone5"}},{"type":"Feature","id":6,"geometry":{"type":"Polygon","coordinates":[[[-97.771782121213676,30.273782767570516],[-97.773732820945526,30.275424111338793],[-97.776481684031097,30.277399674094887],[-97.780125617701415,30.280193911226345],[-97.783761860408106,30.283646606630409],[-97.785024484206843,30.285456569743797],[-97.785992259774389,30.287517182429635],[-97.786542674451013,30.290308654876725],[-97.786504211136617,30.293525462774763],[-97.786270207395177,30.296005880739035],[-97.78527241370243,30.298884723380063],[-97.783935507887819,30.300823218408564],[-97.781748675252445,30.303032668604985],[-97.779766087588399,30.305243931290054],[-97.778303076459153,30.307941178068639],[-97.777067647097226,30.310838058336127],[-97.776122149661916,30.314866338063272],[-97.776050862741599,30.319226789115184],[-97.776374598731138,30.32182368535732],[-97.776978252132608,30.324455543205335],[-97.778124236632692,30.327059885799688],[-97.779681394123216,30.329667938454499],[-97.781882184438118,30.333157241374806],[-97.783893911388432,30.336839341506099],[-97.785509568530117,30.339269506512156],[-97.786972494505065,30.341973880993105],[-97.788074098045186,30.34363741651833],[-97.789500431212744,30.344720223776601],[-97.791372070656024,30.346082612151161],[-97.79422779617812,30.34800498567655],[-97.796990753575713,30.349877831791471],[-97.798343534166463,30.347717486917816],[-97.802553340191807,30.3410431608186],[-97.808036589862439,30.332515562351816],[-97.812778589907381,30.324970130628827],[-97.813825285072596,30.323358128831106],[-97.814772458583647,30.322264032544552],[-97.815958173579673,30.321544904500964],[-97.817838632070647,30.320540041632253],[-97.820526853460379,30.319169342593732],[-97.822562574178534,30.318062419178059],[-97.825060890673129,30.316640320053047],[-97.826244507586139,30.31528272771612],[-97.826785530160819,30.313944863707359],[-97.826832881968443,30.312374717257264],[-97.82647094194698,30.310851670313468],[-97.825565198039996,30.308386612916436],[-97.825231310488618,30.306965130336664],[-97.825334426655033,30.305623450743049],[-97.826201202534733,30.303883114914225],[-97.827335347380895,30.301739793063927],[-97.827826681046403,30.299641533596528],[-97.827916949491978,30.296881156407274],[-97.828336180429844,30.293439678445583],[-97.828385837985294,30.291666882590995],[-97.828196732154026,30.290347982285823],[-97.827631712581407,30.28872182981074],[-97.825938404996606,30.286224562893313],[-97.823350418496446,30.282858176025542],[-97.819386807422973,30.277326466722066],[-97.818208567411091,30.275745552370285],[-97.817725435922654,30.274626703946858],[-97.81756715815709,30.273181387767579],[-97.817731655639662,30.271586910795229],[-97.818111330718907,30.269057033169158],[-97.818286722885532,30.266525359283317],[-97.817862879792301,30.265331030552229],[-97.817115413757563,30.264361847537348],[-97.815795008824296,30.262475667214595],[-97.812949209481047,30.25877745187217],[-97.81042011342528,30.255461949089639],[-97.807485691017291,30.251889483217077],[-97.806593846121629,30.25003232438479],[-97.804948457543261,30.254252984426401],[-97.802419597249965,30.256051285381893],[-97.798157272691796,30.257913247177644],[-97.795556700136416,30.259308931639673],[-97.789703221494676,30.262421264047511],[-97.787628126277426,30.263731334301315],[-97.78438361717123,30.265079144068249],[-97.781278744488631,30.266379820612453],[-97.777889105825551,30.268209334739854],[-97.77626104678852,30.269354172590084],[-97.774522508496247,30.270425510593636],[-97.77291607362298,30.272077836003074],[-97.771782121213676,30.273782767570516]]]},"properties":{"OBJECTID":6,"Shape_Length":88925.814917683732,"Shape_Area":378460652.07294661,"NAME":"Zone6"}},{"type":"Feature","id":7,"geometry":{"type":"Polygon","coordinates":[[[-97.70009079562081,30.338892884248548],[-97.701831402919211,30.340562918002153],[-97.703529036073107,30.342555113421675],[-97.705264020301414,30.34391435537017],[-97.706770919545818,30.344840751326814],[-97.708715244463008,30.345821981932122],[-97.711273840352092,30.346733062206145],[-97.712487836523749,30.347732587128693],[-97.713145378066613,30.348853447039314],[-97.713711466631949,30.350277408371237],[-97.714271149455286,30.352207933018491],[-97.715250645921216,30.355586341635416],[-97.716597394821818,30.359956153387564],[-97.717605611198749,30.363385467367053],[-97.718130148698378,30.365796921757575],[-97.71857060414284,30.367928929474367],[-97.719340703871524,30.369405453647364],[-97.720669974531333,30.370557972442185],[-97.723516303669925,30.371876829678584],[-97.726160140826011,30.373041727315474],[-97.729035823488545,30.374360742430486],[-97.732170052093224,30.376036761205565],[-97.735766094495361,30.378172992589825],[-97.738056846612125,30.379562319361266],[-97.738985121901365,30.377747167805584],[-97.739739981655433,30.375778401271155],[-97.740982316609873,30.372192990533602],[-97.742399822184453,30.368609197571441],[-97.743048699909338,30.365752826284172],[-97.743719218874844,30.363504599135162],[-97.744773794215192,30.360905304757896],[-97.74565088191892,30.35848166653798],[-97.746442189713179,30.355905236267038],[-97.74686077468526,30.355123857567815],[-97.74813975516814,30.353261220732282],[-97.749003576319311,30.351901346842045],[-97.749375272239533,30.3501822646565],[-97.749681677555444,30.349019863808763],[-97.751063734048273,30.345891582876639],[-97.753667581914698,30.34077340045215],[-97.755403852459949,30.337319030257703],[-97.755565080857181,30.336079275950514],[-97.755593045229475,30.333799699102087],[-97.755704264641864,30.327113195995064],[-97.755922002692401,30.321263600298231],[-97.756189107148117,30.318530244941162],[-97.756999667905347,30.311951473205205],[-97.757498941384,30.309029860147593],[-97.755439189462308,30.308664523524758],[-97.753539339428343,30.308280843748872],[-97.752038251160641,30.30793051613227],[-97.751358077942768,30.307597673459675],[-97.750553084052413,30.307214194370342],[-97.749869873102412,30.307128696923982],[-97.748943904684666,30.307308114365039],[-97.748260450341817,30.307242397744648],[-97.746147054098643,30.306609248414976],[-97.743560884024845,30.305476895439856],[-97.741033013665557,30.304246084405793],[-97.738890312683054,30.303226629388529],[-97.738007796820028,30.302664233934468],[-97.733972304224721,30.30071659579631],[-97.73048055558148,30.299070817133575],[-97.729664801628957,30.298647527284547],[-97.727942097610523,30.297800072492272],[-97.724722450424181,30.296295242111569],[-97.724175783648775,30.296240591767564],[-97.72315691109695,30.296557488068892],[-97.719643551573327,30.294841949245779],[-97.715314767639413,30.301811663393547],[-97.712969958051843,30.305409951298579],[-97.710435132731462,30.309325342886275],[-97.708810139590909,30.312211807032512],[-97.708128140988379,30.314410157598523],[-97.707572154788906,30.316982595332366],[-97.707217131440174,30.319913626706185],[-97.706797264157544,30.322065840580045],[-97.70642382041656,30.325539481884327],[-97.705597272844983,30.329529208249589],[-97.704886666529532,30.331580581199209],[-97.702647660539071,30.335398380643689],[-97.70009079562081,30.338892884248548]]]},"properties":{"OBJECTID":7,"Shape_Length":77722.085836732876,"Shape_Area":341031381.27484864,"NAME":"Zone7"}},{"type":"Feature","id":8,"geometry":{"type":"Polygon","coordinates":[[[-97.738056846612125,30.379562319361266],[-97.739317956973707,30.380396864068306],[-97.740317690509954,30.381200583726905],[-97.74120304596326,30.382181558944868],[-97.741991716160598,30.383421015132797],[-97.742586366052009,30.384495293952195],[-97.743565910024884,30.386416843159971],[-97.744478372565752,30.388191670399671],[-97.745051647432064,30.389525073311386],[-97.745790497034974,30.389239769975347],[-97.746989683015542,30.388892336176113],[-97.747976697468957,30.388707270688379],[-97.749342300278201,30.388605807794413],[-97.751295926260497,30.38837489369913],[-97.753512169897505,30.38819825542684],[-97.756158183561666,30.388108549111486],[-97.758802668473493,30.388143283116939],[-97.760369401614568,30.388230318124151],[-97.761818373156572,30.388160621963358],[-97.762648244993898,30.387825844834339],[-97.764046608332478,30.386998246686968],[-97.766296883873721,30.38534571173529],[-97.767621387789816,30.384547231147671],[-97.769972970005639,30.38337814263911],[-97.772501006977237,30.382109296541049],[-97.774648595915849,30.380887608453452],[-97.777420904214949,30.378734305154158],[-97.781671344671736,30.375125108397285],[-97.783915422064567,30.37314421287957],[-97.786187106468446,30.371290183105238],[-97.788164489024339,30.369610786390165],[-97.78925947293871,30.36843006275452],[-97.78968231414359,30.367268630695563],[-97.789872380235522,30.366029114733916],[-97.790007651672056,30.364485133577176],[-97.790633807342289,30.360969727799663],[-97.791451688530827,30.35851994044015],[-97.793236948414176,30.355774831435532],[-97.795351191806333,30.352374025404139],[-97.796990753575713,30.349877831791471],[-97.79422779617812,30.34800498567655],[-97.791372070656024,30.346082612151161],[-97.789500431212744,30.344720223776601],[-97.788074098045186,30.34363741651833],[-97.786972494505065,30.341973880993105],[-97.785509568530117,30.339269506512156],[-97.783893911388432,30.336839341506099],[-97.781882184438118,30.333157241374806],[-97.779681394123216,30.329667938454499],[-97.778124236632692,30.327059885799688],[-97.776978252132608,30.324455543205335],[-97.776374598731138,30.32182368535732],[-97.776050862741599,30.319226789115184],[-97.776122149661916,30.314866338063272],[-97.777067647097226,30.310838058336127],[-97.778303076459153,30.307941178068639],[-97.779766087588399,30.305243931290054],[-97.781748675252445,30.303032668604985],[-97.783935507887819,30.300823218408564],[-97.78527241370243,30.298884723380063],[-97.786270207395177,30.296005880739035],[-97.786504211136617,30.293525462774763],[-97.786542674451013,30.290308654876725],[-97.785992259774389,30.287517182429635],[-97.785024484206843,30.285456569743797],[-97.783761860408106,30.283646606630409],[-97.780125617701415,30.280193911226345],[-97.776481684031097,30.277399674094887],[-97.773732820945526,30.275424111338793],[-97.771782121213676,30.273782767570516],[-97.769855103376088,30.276615904457049],[-97.767503458612666,30.280024932924071],[-97.764402627145643,30.285295180687164],[-97.761966489172352,30.288716394384142],[-97.760804882100899,30.290467083492803],[-97.759998008410847,30.292112177717541],[-97.759211522544717,30.29488551788042],[-97.75856605550095,30.297313813688412],[-97.758279354344296,30.299310018646178],[-97.758351080724765,30.300903818423066],[-97.75845934136494,30.303240097635101],[-97.758301201102327,30.304980205430869],[-97.757498941384,30.309029860147593],[-97.756999667905347,30.311951473205205],[-97.756189107148117,30.318530244941162],[-97.755922002692401,30.321263600298231],[-97.755704264641864,30.327113195995064],[-97.755593045229475,30.333799699102087],[-97.755565080857181,30.336079275950514],[-97.755403852459949,30.337319030257703],[-97.753667581914698,30.34077340045215],[-97.751063734048273,30.345891582876639],[-97.749681677555444,30.349019863808763],[-97.749375272239533,30.3501822646565],[-97.749003576319311,30.351901346842045],[-97.74813975516814,30.353261220732282],[-97.74686077468526,30.355123857567815],[-97.746442189713179,30.355905236267038],[-97.74565088191892,30.35848166653798],[-97.744773794215192,30.360905304757896],[-97.743719218874844,30.363504599135162],[-97.743048699909338,30.365752826284172],[-97.742399822184453,30.368609197571441],[-97.740982316609873,30.372192990533602],[-97.739739981655433,30.375778401271155],[-97.738985121901365,30.377747167805584],[-97.738056846612125,30.379562319361266]]]},"properties":{"OBJECTID":8,"Shape_Length":101383.28037222884,"Shape_Area":387414175.51607651,"NAME":"Zone8"}},{"type":"Feature","id":9,"geometry":{"type":"Polygon","coordinates":[[[-97.738056846612125,30.379562319361266],[-97.736798041729074,30.382108968118931],[-97.735658557780908,30.38445407239292],[-97.734784935000846,30.388904126356437],[-97.733526988886553,30.393705190502946],[-97.732673773871795,30.396508901163308],[-97.73138413703505,30.399156515332514],[-97.729634545185661,30.401191845321971],[-97.727915690901312,30.403100787599964],[-97.725350982967129,30.404875064788133],[-97.722581642756282,30.406647355273297],[-97.718911475721029,30.408005746293718],[-97.715220656643467,30.408679911698272],[-97.711729508769949,30.409735843909562],[-97.709189056122824,30.411864672965006],[-97.706969299518533,30.414047189126812],[-97.705627114589404,30.416162096155215],[-97.704412537240614,30.419722058906853],[-97.702950831980118,30.424131749564587],[-97.70176543373654,30.427589621407847],[-97.701177279444892,30.429691460910135],[-97.700303732663116,30.43216341115356],[-97.699739504384468,30.434121846564498],[-97.699155912604553,30.436886737616039],[-97.698667698672367,30.439335913261303],[-97.697109141674659,30.44331832504588],[-97.696476696171402,30.446320193214909],[-97.696247660323053,30.449919630217241],[-97.696790553034774,30.453882721324945],[-97.698728220915939,30.45952154463269],[-97.70084528491148,30.465439095863253],[-97.702287443875349,30.470558547553296],[-97.703105662049921,30.476170659417985],[-97.70522759409829,30.477178890314732],[-97.709220675448663,30.478230318790771],[-97.7117810107748,30.479267964967711],[-97.715984071661481,30.479915915678163],[-97.718987230427558,30.479623069810156],[-97.723892007466958,30.478403023045271],[-97.727328656440335,30.47764390244636],[-97.729702999544827,30.477784995232806],[-97.731798258348917,30.478319203153358],[-97.734620619037003,30.479176817974238],[-97.737485757813729,30.480272238704465],[-97.740811802859326,30.481055274265124],[-97.743414697610874,30.481198255965893],[-97.746976618069198,30.481389667923349],[-97.750086037108375,30.481220599386472],[-97.7542604457865,30.479913534535946],[-97.761417155456655,30.477604710815871],[-97.76618296927829,30.476049530839049],[-97.768927232122195,30.475085707189304],[-97.771045828673309,30.474780786784411],[-97.774304577622331,30.474599665642309],[-97.777827654519115,30.474226326358885],[-97.781186378184984,30.473510980448776],[-97.785432165702161,30.472171302375926],[-97.791744980579551,30.470120508317926],[-97.797041285999782,30.468546697228827],[-97.796295061022022,30.46677303969312],[-97.795350160920577,30.464397792673118],[-97.794330652162898,30.462005658179763],[-97.793240981309694,30.459223818059286],[-97.79231474076991,30.456864916911019],[-97.791658023380123,30.453876183925303],[-97.790503410154145,30.448710677856525],[-97.789867761310475,30.447100067860273],[-97.788983498661921,30.445941138339638],[-97.787500009599981,30.444825454129454],[-97.785216964653529,30.443297276587813],[-97.780600905040004,30.4402989258578],[-97.777337319531128,30.438211322642506],[-97.774749836176795,30.436881767006891],[-97.770393285475933,30.434546592002373],[-97.761130354563633,30.430068652154606],[-97.751547158000491,30.425257802176983],[-97.749542130586605,30.424302011251889],[-97.748297626405503,30.423302586006781],[-97.747495279251339,30.422003286906545],[-97.747158981529054,30.420834962953684],[-97.746476293223523,30.416953053272628],[-97.745735838903187,30.413019933962872],[-97.745330735327443,30.410331122632357],[-97.745182370502505,30.408151307442512],[-97.745361705405585,30.405467924817891],[-97.745819674290786,30.401520591715389],[-97.74640763321014,30.396510565737621],[-97.746421949053627,30.392989715644756],[-97.746089832330284,30.391492108740977],[-97.745051647432064,30.389525073311386],[-97.744478372565752,30.388191670399671],[-97.743565910024884,30.386416843159971],[-97.742586366052009,30.384495293952195],[-97.741991716160598,30.383421015132797],[-97.74120304596326,30.382181558944868],[-97.740317690509954,30.381200583726905],[-97.739317956973707,30.380396864068306],[-97.738056846612125,30.379562319361266]]]},"properties":{"OBJECTID":9,"Shape_Length":112231.3219547586,"Shape_Area":627802729.54443252,"NAME":"Zone9"}},{"type":"Feature","id":10,"geometry":{"type":"Polygon","coordinates":[[[-97.703105662049921,30.476170659417985],[-97.702287443875349,30.470558547553296],[-97.70084528491148,30.465439095863253],[-97.698728220915939,30.45952154463269],[-97.696790553034774,30.453882721324945],[-97.696247660323053,30.449919630217241],[-97.696476696171402,30.446320193214909],[-97.697109141674659,30.44331832504588],[-97.698667698672367,30.439335913261303],[-97.699155912604553,30.436886737616039],[-97.699739504384468,30.434121846564498],[-97.700303732663116,30.43216341115356],[-97.701177279444892,30.429691460910135],[-97.70176543373654,30.427589621407847],[-97.702950831980118,30.424131749564587],[-97.704412537240614,30.419722058906853],[-97.705627114589404,30.416162096155215],[-97.706969299518533,30.414047189126812],[-97.709189056122824,30.411864672965006],[-97.711729508769949,30.409735843909562],[-97.715220656643467,30.408679911698272],[-97.718911475721029,30.408005746293718],[-97.722581642756282,30.406647355273297],[-97.725350982967129,30.404875064788133],[-97.727915690901312,30.403100787599964],[-97.729634545185661,30.401191845321971],[-97.73138413703505,30.399156515332514],[-97.732673773871795,30.396508901163308],[-97.733526988886553,30.393705190502946],[-97.734784935000846,30.388904126356437],[-97.735658557780908,30.38445407239292],[-97.736798041729074,30.382108968118931],[-97.738056846612125,30.379562319361266],[-97.735766094495361,30.378172992589825],[-97.732170052093224,30.376036761205565],[-97.729035823488545,30.374360742430486],[-97.726160140826011,30.373041727315474],[-97.723516303669925,30.371876829678584],[-97.720669974531333,30.370557972442185],[-97.719340703871524,30.369405453647364],[-97.71857060414284,30.367928929474367],[-97.718130148698378,30.365796921757575],[-97.717605611198749,30.363385467367053],[-97.716597394821818,30.359956153387564],[-97.715250645921216,30.355586341635416],[-97.714271149455286,30.352207933018491],[-97.713711466631949,30.350277408371237],[-97.713145378066613,30.348853447039314],[-97.712487836523749,30.347732587128693],[-97.711273840352092,30.346733062206145],[-97.708715244463008,30.345821981932122],[-97.706770919545818,30.344840751326814],[-97.705264020301414,30.34391435537017],[-97.703529036073107,30.342555113421675],[-97.701831402919211,30.340562918002153],[-97.70009079562081,30.338892884248548],[-97.697760520672958,30.342871579240704],[-97.693975070583321,30.348902545745116],[-97.69169203253692,30.352460052984895],[-97.689421467418555,30.355965761195804],[-97.687820126608571,30.358596002332252],[-97.685241731394015,30.362752306754345],[-97.6832019343301,30.365959251671903],[-97.680355490616449,30.370455232948231],[-97.678693187029026,30.373136633790391],[-97.67694839233782,30.375713446920866],[-97.675787464743976,30.377559297543446],[-97.67518558047793,30.378746586517089],[-97.674618765244688,30.379996471183969],[-97.674219725745033,30.381227251519508],[-97.673726467203508,30.383256026599213],[-97.672602693057826,30.387737615780932],[-97.671981006938921,30.390429152555466],[-97.671670562006,30.392200322940408],[-97.671580408410193,30.393600138979149],[-97.671762646456585,30.395220523005083],[-97.672163837775784,30.396573295958518],[-97.67299866731031,30.398631331901452],[-97.674255655446743,30.401188941875763],[-97.675013725113544,30.403287707225079],[-97.67504164742823,30.405444145395265],[-97.674653905910546,30.407920732579878],[-97.67392806980898,30.411934106215952],[-97.673107176781699,30.416060014586936],[-97.672303860027085,30.420267142657156],[-97.671518116703794,30.424555488387835],[-97.670614549260563,30.429264161948449],[-97.669910722313304,30.433002095070279],[-97.668851388686093,30.438163125818644],[-97.668281583873025,30.44165918619592],[-97.667334540093734,30.446805080128019],[-97.666542685300229,30.450104389918007],[-97.666125647494212,30.452911933676052],[-97.666230806090326,30.456028595908922],[-97.666783169284258,30.458491085221691],[-97.667765773346758,30.461591070704419],[-97.669568373858795,30.466826856563298],[-97.670797343230291,30.471221065382942],[-97.672746474007837,30.476458223772116],[-97.673982328358193,30.480345849245282],[-97.679544184218514,30.47994441685718],[-97.684609549064163,30.47948726062344],[-97.69281643499771,30.478072499445773],[-97.700291542139738,30.476874114105527],[-97.703105662049921,30.476170659417985]]]},"properties":{"OBJECTID":10,"Shape_Length":124523.0225676421,"Shape_Area":583470127.49805486,"NAME":"Zone10"}},{"type":"Feature","id":11,"geometry":{"type":"Polygon","coordinates":[[[-97.673982328358193,30.480345849245282],[-97.672746474007837,30.476458223772116],[-97.670797343230291,30.471221065382942],[-97.669568373858795,30.466826856563298],[-97.667765773346758,30.461591070704419],[-97.666783169284258,30.458491085221691],[-97.666230806090326,30.456028595908922],[-97.666125647494212,30.452911933676052],[-97.666542685300229,30.450104389918007],[-97.667334540093734,30.446805080128019],[-97.668281583873025,30.44165918619592],[-97.668851388686093,30.438163125818644],[-97.669910722313304,30.433002095070279],[-97.670614549260563,30.429264161948449],[-97.671518116703794,30.424555488387835],[-97.672303860027085,30.420267142657156],[-97.673107176781699,30.416060014586936],[-97.67392806980898,30.411934106215952],[-97.674653905910546,30.407920732579878],[-97.67504164742823,30.405444145395265],[-97.675013725113544,30.403287707225079],[-97.674255655446743,30.401188941875763],[-97.67299866731031,30.398631331901452],[-97.672163837775784,30.396573295958518],[-97.671762646456585,30.395220523005083],[-97.671580408410193,30.393600138979149],[-97.671670562006,30.392200322940408],[-97.671981006938921,30.390429152555466],[-97.672602693057826,30.387737615780932],[-97.673726467203508,30.383256026599213],[-97.674219725745033,30.381227251519508],[-97.674618765244688,30.379996471183969],[-97.67518558047793,30.378746586517089],[-97.675787464743976,30.377559297543446],[-97.67694839233782,30.375713446920866],[-97.678693187029026,30.373136633790391],[-97.680355490616449,30.370455232948231],[-97.6832019343301,30.365959251671903],[-97.685241731394015,30.362752306754345],[-97.687820126608571,30.358596002332252],[-97.689421467418555,30.355965761195804],[-97.69169203253692,30.352460052984895],[-97.693975070583321,30.348902545745116],[-97.697760520672958,30.342871579240704],[-97.70009079562081,30.338892884248548],[-97.697780474739403,30.337822583696969],[-97.691883770882811,30.33501730778471],[-97.68571368779358,30.332265809202895],[-97.682627229451199,30.331008679630425],[-97.678955488192372,30.329152032130345],[-97.675874373834347,30.327498988176714],[-97.6734274768327,30.325615689332754],[-97.670749638055312,30.326254666919958],[-97.666978375518838,30.327384718038189],[-97.663437247227293,30.328062999875414],[-97.65881910526933,30.328211683051478],[-97.652720404515009,30.328669667147444],[-97.644862284928237,30.329320461686397],[-97.636051689069021,30.329912529831873],[-97.628099712279663,30.330577612022495],[-97.623406656504301,30.330724321299808],[-97.620429039846897,30.331164043635503],[-97.616733550825288,30.332163770385311],[-97.608254252179137,30.334459725733446],[-97.603770514145282,30.33567793183208],[-97.594149115358505,30.339420284523488],[-97.591423977328986,30.340494283515863],[-97.592545339671759,30.343197246469774],[-97.593775752025905,30.346128306587623],[-97.593985687324022,30.348513707220658],[-97.593437185334992,30.350323765231629],[-97.592062429494035,30.352940348372279],[-97.590440742775996,30.355133464196285],[-97.585499243791531,30.362599669007945],[-97.584418114353824,30.36484441894379],[-97.583341110747739,30.370057741002007],[-97.581691934038943,30.377006563350818],[-97.580539992080389,30.381031639684121],[-97.57968345974102,30.383516180299011],[-97.578717283530935,30.387305705076376],[-97.578669571225362,30.390709095551205],[-97.57900037485004,30.393166546729645],[-97.580099508147086,30.396186202726291],[-97.581424757356643,30.399366542927449],[-97.582649374785376,30.403218665366708],[-97.584296383200723,30.409529146948895],[-97.587078608525644,30.421231824937468],[-97.590000351349516,30.431775662655838],[-97.592027627153328,30.439960039820186],[-97.593663072494635,30.445542897078013],[-97.594131903568311,30.45290699030511],[-97.594528569821748,30.46033214412671],[-97.593854574051576,30.467746121540006],[-97.593054026222688,30.47398376615946],[-97.602059422793118,30.478468034629177],[-97.610713745912861,30.482577027292002],[-97.616108268396516,30.484920536145971],[-97.62485693743831,30.487421706541998],[-97.629487596479635,30.488210872594632],[-97.636190491674611,30.488897142940228],[-97.644881195979096,30.487047987621249],[-97.653923875868756,30.484453462553493],[-97.664837248276868,30.481902174064157],[-97.670408534714596,30.480791973339034],[-97.673982328358193,30.480345849245282]]]},"properties":{"OBJECTID":11,"Shape_Length":168092.57285967906,"Shape_Area":1544261471.543128,"NAME":"Zone11"}},{"type":"Feature","id":12,"geometry":{"type":"Polygon","coordinates":[[[-97.591423977328986,30.340494283515863],[-97.594149115358505,30.339420284523488],[-97.603770514145282,30.33567793183208],[-97.608254252179137,30.334459725733446],[-97.616733550825288,30.332163770385311],[-97.620429039846897,30.331164043635503],[-97.623406656504301,30.330724321299808],[-97.628099712279663,30.330577612022495],[-97.636051689069021,30.329912529831873],[-97.644862284928237,30.329320461686397],[-97.652720404515009,30.328669667147444],[-97.65881910526933,30.328211683051478],[-97.663437247227293,30.328062999875414],[-97.666978375518838,30.327384718038189],[-97.670749638055312,30.326254666919958],[-97.6734274768327,30.325615689332754],[-97.670137549172068,30.323088612298474],[-97.667108101080544,30.32100047813779],[-97.664539637630185,30.31856061064477],[-97.663060868754556,30.316527314781556],[-97.662422016876221,30.313077414642343],[-97.660975751457173,30.308590373170073],[-97.660560896983398,30.305459326120904],[-97.660830214489252,30.302335073058167],[-97.662083382681772,30.297241512945927],[-97.664323304648036,30.289941144468397],[-97.665405154462434,30.285642213173904],[-97.666262956884623,30.282560166913939],[-97.667513064049146,30.27849402955011],[-97.667988709632695,30.275610843147167],[-97.668790974686033,30.272300226802788],[-97.669461192866379,30.27015359141086],[-97.6703409543329,30.267603698551287],[-97.671179887263904,30.265940032841339],[-97.673296016496167,30.262566333430346],[-97.67609994278321,30.257907398679368],[-97.67799312520583,30.255136368034226],[-97.679867903822881,30.25314435896636],[-97.681694949517706,30.251946286802191],[-97.684153660767493,30.250997554471187],[-97.68727865722596,30.25050923267079],[-97.689060898548419,30.2498780744092],[-97.690251467679403,30.248787180234324],[-97.690923849048133,30.247134614908429],[-97.690791394926023,30.245321879026772],[-97.690372562912401,30.243276361152674],[-97.689042659841505,30.24067839520443],[-97.686557800610075,30.237030309539431],[-97.68489111562603,30.234670600610151],[-97.683859332672128,30.232703623143422],[-97.682708552782614,30.229189277068883],[-97.68284119621228,30.225397562916211],[-97.683259519291909,30.224586314747569],[-97.678151526797194,30.222765594473397],[-97.673266337840445,30.220552872110819],[-97.662300777420114,30.215001746426143],[-97.658237410299421,30.212572491368825],[-97.653202669525029,30.210239409175543],[-97.646888582330291,30.207104671548965],[-97.641529907804582,30.204020779349911],[-97.634271618302662,30.200087288905351],[-97.628335347192376,30.197370549415254],[-97.62402597445157,30.194504154829005],[-97.622977708263093,30.197813930284479],[-97.622537538721218,30.202084555954809],[-97.622199577689187,30.209386155464152],[-97.622332099990018,30.217232122406298],[-97.622642341797018,30.222548032995839],[-97.622071633128186,30.225862649416584],[-97.620212228170999,30.22903954520611],[-97.618352707917467,30.232216411044256],[-97.615110135850401,30.238657967048162],[-97.610230086612617,30.245954159346166],[-97.606977477808172,30.249573029124573],[-97.597836524277568,30.264129525337118],[-97.593290982192087,30.271262509806711],[-97.590815780786997,30.273892960645629],[-97.585933041913847,30.277701761156489],[-97.579787291993469,30.282513457999784],[-97.578289322783178,30.284431038653963],[-97.573184624287506,30.291745797416006],[-97.570769347484386,30.296097646507704],[-97.569448260008727,30.300351629451743],[-97.569277937612569,30.303486978246806],[-97.569487979236087,30.306480445922553],[-97.570612562852077,30.310213179984352],[-97.572741022274883,30.314321315221228],[-97.57588066941932,30.318294181029959],[-97.580676217107637,30.324144795114933],[-97.584522072999121,30.328781474380587],[-97.587396638804918,30.333736157855583],[-97.589937122537307,30.338541361409483],[-97.591423977328986,30.340494283515863]]]},"properties":{"OBJECTID":12,"Shape_Length":150680.30186583265,"Shape_Area":1105548663.899199,"NAME":"Zone12"}},{"type":"Feature","id":13,"geometry":{"type":"Polygon","coordinates":[[[-97.751409159297452,30.216264755707147],[-97.753119807061694,30.213515520273369],[-97.756014055086538,30.208876501097102],[-97.757689639467912,30.206427643483732],[-97.760859139369458,30.202448205242252],[-97.764124346532171,30.198354563994418],[-97.769824142886819,30.191539475620036],[-97.771902167115641,30.188601236822048],[-97.774539524809484,30.18474803276678],[-97.77633206738156,30.181938552972895],[-97.779915869916707,30.176401647636496],[-97.784095397628789,30.170032137946805],[-97.786021717742713,30.167059434152524],[-97.784970810283056,30.167001792133465],[-97.782993953473479,30.166936556219348],[-97.78188118924362,30.166732684119829],[-97.780963104593368,30.166414282958836],[-97.780264481901256,30.165981580362203],[-97.779685063312613,30.165528422257712],[-97.779219946487558,30.165050457022172],[-97.778564728971816,30.163920169699594],[-97.777815689203123,30.1624530958835],[-97.775840799220205,30.158613989795619],[-97.774318525742899,30.155601482205235],[-97.773923155814899,30.155089233099147],[-97.77317556439769,30.154437738111174],[-97.772419321224461,30.153939937518295],[-97.771261301355167,30.153462121890254],[-97.768282916954504,30.152689665465079],[-97.766844994181625,30.152286138412734],[-97.764999505775336,30.151819710271184],[-97.763932857505282,30.15166796797682],[-97.762367365214033,30.151683151897497],[-97.760609676318083,30.151832580977331],[-97.758743103279414,30.151980983732159],[-97.757496570740258,30.152070026759699],[-97.756239392245362,30.151916464061145],[-97.754993008036308,30.151437691291839],[-97.754244188596999,30.150898453568352],[-97.753141254186318,30.149649884298594],[-97.75173341377743,30.14825985409917],[-97.750420686061204,30.147785597027429],[-97.747277366461944,30.146582704699767],[-97.744099827460872,30.145573488553779],[-97.74221670065802,30.145657555277271],[-97.740256052701639,30.145990390055722],[-97.738873195058375,30.146032885538904],[-97.735334209880406,30.14587953094939],[-97.733181776245345,30.145387968640293],[-97.73122871798779,30.145110804928656],[-97.730090057468686,30.145183236938621],[-97.731420386876508,30.149571771442677],[-97.731930604357004,30.152374290479525],[-97.731464806837877,30.154332807646348],[-97.728975540073606,30.158235131253605],[-97.725878660659376,30.163151217938118],[-97.722595318045748,30.161572516384311],[-97.72147055527347,30.160878926286195],[-97.720215596269881,30.159724437571739],[-97.718912187199834,30.158818999876548],[-97.716946742426316,30.157683980342515],[-97.71548597530554,30.157276057790245],[-97.713733463881283,30.157233053046436],[-97.711378356698248,30.157039793991899],[-97.710115558780586,30.156515512994247],[-97.708437856584567,30.155343725158541],[-97.706584886695182,30.153697444759334],[-97.705076325807369,30.152303978446756],[-97.703825677159571,30.150834180599603],[-97.702626954660929,30.150034651510737],[-97.701242070005321,30.149614171118252],[-97.699852662398726,30.149548221583764],[-97.697795407233556,30.149712190608767],[-97.696919051421162,30.14970370706596],[-97.696545090738155,30.151761959807956],[-97.695435652843869,30.155783023593507],[-97.69434427488946,30.159567854485765],[-97.693508782547141,30.162251992882979],[-97.69281084358893,30.164166620026251],[-97.68474557097251,30.160232813566108],[-97.671508033674456,30.154049316478982],[-97.66894183606054,30.153469910843672],[-97.659447487525625,30.148854353331394],[-97.653394564210728,30.161416038352847],[-97.650691072859004,30.16432805704968],[-97.643426941909993,30.171023853859506],[-97.637003325404081,30.176124626651863],[-97.630879362198925,30.181762515664634],[-97.627405430336239,30.188495920867251],[-97.62402597445157,30.194504154829005],[-97.628335347192376,30.197370549415254],[-97.634271618302662,30.200087288905351],[-97.641529907804582,30.204020779349911],[-97.646888582330291,30.207104671548965],[-97.653202669525029,30.210239409175543],[-97.658237410299421,30.212572491368825],[-97.662300777420114,30.215001746426143],[-97.673266337840445,30.220552872110819],[-97.678151526797194,30.222765594473397],[-97.683259519291909,30.224586314747569],[-97.684068315987105,30.223017784822357],[-97.686380502739937,30.220624422585608],[-97.690424446220959,30.218783248884204],[-97.698749304731507,30.215737860666867],[-97.706932600472754,30.213103479009245],[-97.710201755367777,30.212368055374242],[-97.712427758382105,30.212273753453886],[-97.720672058209644,30.21337155945357],[-97.729699280560638,30.214438497549196],[-97.739590741783175,30.215928158414627],[-97.747147244326243,30.21645166367982],[-97.751409159297452,30.216264755707147]]]},"properties":{"OBJECTID":13,"Shape_Length":142725.63002921248,"Shape_Area":931928841.66321886,"NAME":"Zone13"}},{"type":"Feature","id":14,"geometry":{"type":"Polygon","coordinates":[[[-97.825037981227297,30.235182434048291],[-97.825887164027463,30.233506034087416],[-97.827838081219696,30.230185845946774],[-97.830068854490762,30.227620099624076],[-97.832900056384332,30.224605159437001],[-97.834505729197758,30.223036641229388],[-97.835311511879084,30.221993885397815],[-97.837529077736548,30.218973535547217],[-97.838532864780149,30.21796380299017],[-97.839839888571191,30.217254360952928],[-97.841109029138053,30.216701256044828],[-97.842374049065981,30.216508457496353],[-97.8439614392164,30.216522094669799],[-97.846558097233924,30.216622700419116],[-97.848885070422781,30.216642612583581],[-97.850709978327984,30.216391851653903],[-97.852142280078098,30.215761697286197],[-97.854122782109286,30.214509489530673],[-97.856303770293835,30.213070944847875],[-97.858034987607709,30.211518876746947],[-97.859934467144228,30.209435512033423],[-97.862129654801038,30.206712245436933],[-97.864109514886835,30.203877450197151],[-97.866108698917728,30.200917445255765],[-97.865125672461886,30.20043161171704],[-97.864253012459599,30.200013133394279],[-97.863486824692188,30.199364919658699],[-97.862423680710378,30.198433426798076],[-97.861178349172562,30.197279783509533],[-97.860229547225899,30.196449512828465],[-97.859888677267605,30.195965314410671],[-97.859426247744409,30.194998772801906],[-97.858580182870114,30.193246844285699],[-97.857904456398487,30.191747038012849],[-97.857240855384447,30.190197192831022],[-97.85665547030645,30.188878638048475],[-97.855690928679294,30.187406446071748],[-97.85504109356269,30.186688976587916],[-97.854046728649664,30.185818160651881],[-97.852465145046793,30.184822003674402],[-97.849882367775223,30.183566592166692],[-97.84061541736304,30.179082654973623],[-97.837530170487355,30.177586425250361],[-97.83537563614054,30.176739935968605],[-97.834379673536574,30.176635051276886],[-97.832446470836459,30.176457857574853],[-97.831716250414743,30.176368093688648],[-97.82951023861294,30.175508226884279],[-97.828533725844295,30.174999161199725],[-97.827053844785425,30.173946627409215],[-97.826103787853171,30.173707311789713],[-97.823800834843709,30.173731177623267],[-97.806125797333621,30.173982927662173],[-97.802476383278133,30.174008166447777],[-97.801452771615786,30.173708258022611],[-97.800740975757819,30.173391066442306],[-97.799494282427574,30.172437368902376],[-97.79596794703221,30.169353099077902],[-97.794063580940247,30.168007605559737],[-97.792645057743457,30.167423721021422],[-97.791564917559512,30.167297899153201],[-97.78866559746065,30.167075986216062],[-97.786021717742713,30.167059434152524],[-97.784095397628789,30.170032137946805],[-97.779915869916707,30.176401647636496],[-97.77633206738156,30.181938552972895],[-97.774539524809484,30.18474803276678],[-97.771902167115641,30.188601236822048],[-97.769824142886819,30.191539475620036],[-97.764124346532171,30.198354563994418],[-97.760859139369458,30.202448205242252],[-97.757689639467912,30.206427643483732],[-97.756014055086538,30.208876501097102],[-97.753119807061694,30.213515520273369],[-97.751409159297452,30.216264755707147],[-97.75652395131867,30.219151799466101],[-97.762431174041851,30.222063179092235],[-97.766296479189307,30.224699751562198],[-97.769938223792082,30.226851337644039],[-97.772509796196118,30.227694278170308],[-97.777210650086474,30.227675195280085],[-97.783297485042681,30.227985444794832],[-97.787811921181472,30.22969312979739],[-97.793896981910748,30.232695164026342],[-97.794809123186909,30.233106302388737],[-97.796514500247426,30.233446249122647],[-97.799012064613819,30.233051076692682],[-97.802208173846168,30.232306451617276],[-97.804547088773418,30.231770609681199],[-97.807072197560188,30.232055849350843],[-97.809499962726363,30.233051421404067],[-97.810901081614986,30.23352765160584],[-97.813679490711621,30.233474844913733],[-97.817264861096746,30.232934294705235],[-97.820623433331974,30.233520369398541],[-97.823687679589355,30.234923260095961],[-97.825037981227297,30.235182434048291]]]},"properties":{"OBJECTID":14,"Shape_Length":95840.072474552944,"Shape_Area":559589187.27415991,"NAME":"Zone14"}}]
}